[{"OBJECT_NAME":"STARLINK-36175","OBJECT_ID":"2025-293K","EPOCH":"2026-03-09T11:46:20.204832","MEAN_MOTION":14.98333042,"ECCENTRICITY":0.00028798,"INCLINATION":70.0001,"RA_OF_ASC_NODE":95.1336,"ARG_OF_PERICENTER":267.68,"MEAN_ANOMALY":92.403,"EPHEMERIS_TYPE":0,"CLASSIFICATION_TYPE":"U","NORAD_CAT_ID":67012,"ELEMENT_SET_NO":999,"REV_AT_EPOCH":1485,"BSTAR":0.0002615372,"MEAN_MOTION_DOT":3.029e-5,"MEAN_MOTION_DDOT":0},{"OBJECT_NAME":"NIGERIASAT-1","OBJECT_ID":"2003-042C","EPOCH":"2026-03-09T23:18:28.284480","MEAN_MOTION":14.90021828,"ECCENTRICITY":0.00412391,"INCLINATION":98.0062,"RA_OF_ASC_NODE":259.4679,"ARG_OF_PERICENTER":255.6174,"MEAN_ANOMALY":104.0464,"EPHEMERIS_TYPE":0,"CLASSIFICATION_TYPE":"U","NORAD_CAT_ID":27941,"ELEMENT_SET_NO":999,"REV_AT_EPOCH":20905,"BSTAR":0.0001905973,"MEAN_MOTION_DOT":1.807e-5,"MEAN_MOTION_DDOT":0}]
